[Satellite]
VERSION=1.1
NAME=IRIDIUM 46 [+]
NICKNAME=IRIDIUM 46 [+]
TLE1=1 24905U 97043C   18020.83133795  .00000016  00000-0 -11937-5 0  9997
TLE2=2 24905  86.4004 164.4995 0002083  76.4408 283.7020 14.34217165 69027
